[{"OBJECT_NAME":"INTELSAT 33E DEB","OBJECT_ID":"2016-053AQ","EPOCH":"2026-03-04T22:45:14.442912","MEAN_MOTION":0.99991933,"ECCENTRICITY":0.00645255,"INCLINATION":1.1932,"RA_OF_ASC_NODE":69.3373,"ARG_OF_PERICENTER":349.8636,"MEAN_ANOMALY":11.206,"EPHEMERIS_TYPE":0,"CLASSIFICATION_TYPE":"U","NORAD_CAT_ID":64410,"ELEMENT_SET_NO":999,"REV_AT_EPOCH":484,"BSTAR":0,"MEAN_MOTION_DOT":-2.36e-6,"MEAN_MOTION_DDOT":0},{"OBJECT_NAME":"INTELSAT 33E DEB","OBJECT_ID":"2016-053AR","EPOCH":"2026-02-11T13:58:00.849792","MEAN_MOTION":1.00885442,"ECCENTRICITY":0.0104507,"INCLINATION":1.1233,"RA_OF_ASC_NODE":54.0813,"ARG_OF_PERICENTER":331.9381,"MEAN_ANOMALY":28.0697,"EPHEMERIS_TYPE":0,"CLASSIFICATION_TYPE":"U","NORAD_CAT_ID":64411,"ELEMENT_SET_NO":999,"REV_AT_EPOCH":467,"BSTAR":0,"MEAN_MOTION_DOT":-1.05e-6,"MEAN_MOTION_DDOT":0},{"OBJECT_NAME":"COSMOS 2589","OBJECT_ID":"2025-131A","EPOCH":"2026-03-05T17:18:37.126656","MEAN_MOTION":1.00215765,"ECCENTRICITY":0.1071606,"INCLINATION":0.1501,"RA_OF_ASC_NODE":322.8363,"ARG_OF_PERICENTER":139.6707,"MEAN_ANOMALY":56.882,"EPHEMERIS_TYPE":0,"CLASSIFICATION_TYPE":"U","NORAD_CAT_ID":64467,"ELEMENT_SET_NO":999,"REV_AT_EPOCH":252,"BSTAR":0,"MEAN_MOTION_DOT":-3.37e-6,"MEAN_MOTION_DDOT":0},{"OBJECT_NAME":"BREEZE-M R/B","OBJECT_ID":"2025-131B","EPOCH":"2026-02-26T22:35:18.936096","MEAN_MOTION":1.04432222,"ECCENTRICITY":0.3864148,"INCLINATION":0.4308,"RA_OF_ASC_NODE":302.5287,"ARG_OF_PERICENTER":160.2548,"MEAN_ANOMALY":302.1848,"EPHEMERIS_TYPE":0,"CLASSIFICATION_TYPE":"U","NORAD_CAT_ID":64468,"ELEMENT_SET_NO":999,"REV_AT_EPOCH":263,"BSTAR":0,"MEAN_MOTION_DOT":-1.71e-6,"MEAN_MOTION_DDOT":0},{"OBJECT_NAME":"CHINASAT 9C","OBJECT_ID":"2025-132A","EPOCH":"2026-03-06T02:24:56.564352","MEAN_MOTION":1.00271784,"ECCENTRICITY":0.00025835,"INCLINATION":0.0255,"RA_OF_ASC_NODE":110.8878,"ARG_OF_PERICENTER":223.8175,"MEAN_ANOMALY":317.5547,"EPHEMERIS_TYPE":0,"CLASSIFICATION_TYPE":"U","NORAD_CAT_ID":64470,"ELEMENT_SET_NO":999,"REV_AT_EPOCH":311,"BSTAR":0,"MEAN_MOTION_DOT":-2.53e-6,"MEAN_MOTION_DDOT":0},{"OBJECT_NAME":"COSMOS 2590","OBJECT_ID":"2025-131D","EPOCH":"2026-03-05T13:07:35.520096","MEAN_MOTION":1.00266796,"ECCENTRICITY":0.3659022,"INCLINATION":0.1157,"RA_OF_ASC_NODE":7.7881,"ARG_OF_PERICENTER":91.1242,"MEAN_ANOMALY":8.8201,"EPHEMERIS_TYPE":0,"CLASSIFICATION_TYPE":"U","NORAD_CAT_ID":64527,"ELEMENT_SET_NO":999,"REV_AT_EPOCH":257,"BSTAR":0,"MEAN_MOTION_DOT":-3.13e-6,"MEAN_MOTION_DDOT":0},{"OBJECT_NAME":"MTG-S1","OBJECT_ID":"2025-143A","EPOCH":"2026-03-06T05:23:01.985856","MEAN_MOTION":1.00270178,"ECCENTRICITY":0.00025088,"INCLINATION":0.6533,"RA_OF_ASC_NODE":326.6338,"ARG_OF_PERICENTER":348.5853,"MEAN_ANOMALY":286.0118,"EPHEMERIS_TYPE":0,"CLASSIFICATION_TYPE":"U","NORAD_CAT_ID":64723,"ELEMENT_SET_NO":999,"REV_AT_EPOCH":238,"BSTAR":0,"MEAN_MOTION_DOT":-3.7e-7,"MEAN_MOTION_DDOT":0},{"OBJECT_NAME":"DROR 1","OBJECT_ID":"2025-148A","EPOCH":"2026-03-06T05:22:54.497568","MEAN_MOTION":1.00272509,"ECCENTRICITY":0.00035315,"INCLINATION":0.0328,"RA_OF_ASC_NODE":86.3514,"ARG_OF_PERICENTER":262.4351,"MEAN_ANOMALY":251.8717,"EPHEMERIS_TYPE":0,"CLASSIFICATION_TYPE":"U","NORAD_CAT_ID":64784,"ELEMENT_SET_NO":999,"REV_AT_EPOCH":226,"BSTAR":0,"MEAN_MOTION_DOT":-3.9e-7,"MEAN_MOTION_DDOT":0},{"OBJECT_NAME":"SHIYAN-29","OBJECT_ID":"2025-196A","EPOCH":"2026-03-05T20:55:17.041728","MEAN_MOTION":1.00288618,"ECCENTRICITY":0.00099624,"INCLINATION":28.7127,"RA_OF_ASC_NODE":19.8352,"ARG_OF_PERICENTER":182.9007,"MEAN_ANOMALY":9.1502,"EPHEMERIS_TYPE":0,"CLASSIFICATION_TYPE":"U","NORAD_CAT_ID":65486,"ELEMENT_SET_NO":999,"REV_AT_EPOCH":184,"BSTAR":0,"MEAN_MOTION_DOT":-2.72e-6,"MEAN_MOTION_DDOT":0},{"OBJECT_NAME":"NUSANTARA LIMA (NUSANTARA 5)","OBJECT_ID":"2025-205A","EPOCH":"2026-03-05T23:05:25.702656","MEAN_MOTION":1.00272063,"ECCENTRICITY":9.301e-5,"INCLINATION":0.0847,"RA_OF_ASC_NODE":56.0779,"ARG_OF_PERICENTER":357.1803,"MEAN_ANOMALY":209.6103,"EPHEMERIS_TYPE":0,"CLASSIFICATION_TYPE":"U","NORAD_CAT_ID":65588,"ELEMENT_SET_NO":999,"REV_AT_EPOCH":168,"BSTAR":0,"MEAN_MOTION_DOT":-3.64e-6,"MEAN_MOTION_DDOT":0},{"OBJECT_NAME":"TJS-20","OBJECT_ID":"2025-238A","EPOCH":"2026-03-06T03:59:10.028256","MEAN_MOTION":1.00270283,"ECCENTRICITY":0.00076478,"INCLINATION":5.6986,"RA_OF_ASC_NODE":299.9363,"ARG_OF_PERICENTER":90.8961,"MEAN_ANOMALY":255.2336,"EPHEMERIS_TYPE":0,"CLASSIFICATION_TYPE":"U","NORAD_CAT_ID":66142,"ELEMENT_SET_NO":999,"REV_AT_EPOCH":129,"BSTAR":0,"MEAN_MOTION_DOT":1.7e-7,"MEAN_MOTION_DDOT":0},{"OBJECT_NAME":"SPAINSAT NG II","OBJECT_ID":"2025-239A","EPOCH":"2026-03-05T12:17:48.385248","MEAN_MOTION":0.96966215,"ECCENTRICITY":0.7656348,"INCLINATION":14.8745,"RA_OF_ASC_NODE":233.7934,"ARG_OF_PERICENTER":200.2479,"MEAN_ANOMALY":93.0137,"EPHEMERIS_TYPE":0,"CLASSIFICATION_TYPE":"U","NORAD_CAT_ID":66144,"ELEMENT_SET_NO":999,"REV_AT_EPOCH":134,"BSTAR":0,"MEAN_MOTION_DOT":-3.2e-7,"MEAN_MOTION_DDOT":0},{"OBJECT_NAME":"CMS-03 (GSAT-7R)","OBJECT_ID":"2025-249B","EPOCH":"2026-03-06T04:04:02.061984","MEAN_MOTION":0.9998773,"ECCENTRICITY":0.00015431,"INCLINATION":0.0583,"RA_OF_ASC_NODE":271.5701,"ARG_OF_PERICENTER":214.2537,"MEAN_ANOMALY":178.4317,"EPHEMERIS_TYPE":0,"CLASSIFICATION_TYPE":"U","NORAD_CAT_ID":66311,"ELEMENT_SET_NO":999,"REV_AT_EPOCH":131,"BSTAR":0,"MEAN_MOTION_DOT":-7.1e-7,"MEAN_MOTION_DDOT":0},{"OBJECT_NAME":"VIASAT-3 F2","OBJECT_ID":"2025-261A","EPOCH":"2026-03-04T01:43:38.701344","MEAN_MOTION":1.00755864,"ECCENTRICITY":0.01531966,"INCLINATION":0.2081,"RA_OF_ASC_NODE":279.6178,"ARG_OF_PERICENTER":202.4155,"MEAN_ANOMALY":336.1707,"EPHEMERIS_TYPE":0,"CLASSIFICATION_TYPE":"U","NORAD_CAT_ID":66454,"ELEMENT_SET_NO":999,"REV_AT_EPOCH":172,"BSTAR":0,"MEAN_MOTION_DOT":-2.95e-6,"MEAN_MOTION_DDOT":0},{"OBJECT_NAME":"SHIJIAN-28 (SJ-28)","OBJECT_ID":"2025-277A","EPOCH":"2026-03-06T05:56:51.580608","MEAN_MOTION":1.00274196,"ECCENTRICITY":1.915e-5,"INCLINATION":4.8035,"RA_OF_ASC_NODE":273.6846,"ARG_OF_PERICENTER":157.7476,"MEAN_ANOMALY":298.5082,"EPHEMERIS_TYPE":0,"CLASSIFICATION_TYPE":"U","NORAD_CAT_ID":66549,"ELEMENT_SET_NO":999,"REV_AT_EPOCH":112,"BSTAR":0,"MEAN_MOTION_DOT":-3.69e-6,"MEAN_MOTION_DDOT":0},{"OBJECT_NAME":"TJS-22","OBJECT_ID":"2025-290A","EPOCH":"2026-03-06T03:37:57.529056","MEAN_MOTION":1.00272187,"ECCENTRICITY":0.00028907,"INCLINATION":1.7826,"RA_OF_ASC_NODE":285.4255,"ARG_OF_PERICENTER":359.176,"MEAN_ANOMALY":0.2044,"EPHEMERIS_TYPE":0,"CLASSIFICATION_TYPE":"U","NORAD_CAT_ID":66990,"ELEMENT_SET_NO":999,"REV_AT_EPOCH":99,"BSTAR":0,"MEAN_MOTION_DOT":-1.3e-7,"MEAN_MOTION_DDOT":0},{"OBJECT_NAME":"TJS-23","OBJECT_ID":"2025-306A","EPOCH":"2026-03-05T21:15:06.138144","MEAN_MOTION":1.00274916,"ECCENTRICITY":0.00045301,"INCLINATION":5.8234,"RA_OF_ASC_NODE":297.9988,"ARG_OF_PERICENTER":107.7946,"MEAN_ANOMALY":252.1229,"EPHEMERIS_TYPE":0,"CLASSIFICATION_TYPE":"U","NORAD_CAT_ID":67226,"ELEMENT_SET_NO":999,"REV_AT_EPOCH":85,"BSTAR":0,"MEAN_MOTION_DOT":8.0e-8,"MEAN_MOTION_DDOT":0}]
