INTELSAT 33E DEB        
1 64410U 16053AQ  26063.94808383 -.00000236  00000+0  00000+0 0  9990
2 64410   1.1932  69.3373 0064525 349.8636  11.2060  0.99991933  4843
INTELSAT 33E DEB        
1 64411U 16053AR  26042.58195428 -.00000105  00000+0  00000+0 0  9992
2 64411   1.1233  54.0813 0104507 331.9381  28.0697  1.00885442  4675
COSMOS 2589             
1 64467U 25131A   26064.72126304 -.00000337  00000+0  00000+0 0  9994
2 64467   0.1501 322.8363 1071606 139.6707  56.8820  1.00215765  2522
BREEZE-M R/B            
1 64468U 25131B   26057.94119139 -.00000171  00000+0  00000+0 0  9995
2 64468   0.4308 302.5287 3864148 160.2548 302.1848  1.04432222  2639
CHINASAT 9C             
1 64470U 25132A   26065.10065468 -.00000253  00000+0  00000+0 0  9992
2 64470   0.0255 110.8878 0002583 223.8175 317.5547  1.00271784  3111
COSMOS 2590             
1 64527U 25131D   26064.54693889 -.00000313  00000+0  00000+0 0  9992
2 64527   0.1157   7.7881 3659022  91.1242   8.8201  1.00266796  2577
MTG-S1                  
1 64723U 25143A   26065.22432854 -.00000037  00000+0  00000+0 0  9995
2 64723   0.6533 326.6338 0002508 348.5853 286.0118  1.00270178  2388
DROR 1                  
1 64784U 25148A   26065.22424187 -.00000039  00000+0  00000+0 0  9999
2 64784   0.0328  86.3514 0003531 262.4351 251.8717  1.00272509  2263
SHIYAN-29               
1 65486U 25196A   26064.87172502 -.00000272  00000+0  00000+0 0  9992
2 65486  28.7127  19.8352 0009962 182.9007   9.1502  1.00288618  1843
NUSANTARA LIMA (NUSANT*)
1 65588U 25205A   26064.96210304 -.00000364  00000+0  00000+0 0  9991
2 65588   0.0847  56.0779 0000930 357.1803 209.6103  1.00272063  1683
TJS-20                  
1 66142U 25238A   26065.16608829  .00000017  00000+0  00000+0 0  9994
2 66142   5.6986 299.9363 0007647  90.8961 255.2336  1.00270283  1294
SPAINSAT NG II          
1 66144U 25239A   26064.51236557 -.00000032  00000+0  00000+0 0  9998
2 66144  14.8745 233.7934 7656348 200.2479  93.0137  0.96966215  1341
CMS-03 (GSAT-7R)        
1 66311U 25249B   26065.16946831 -.00000071  00000+0  00000+0 0  9993
2 66311   0.0583 271.5701 0001543 214.2537 178.4317  0.99987730  1313
VIASAT-3 F2             
1 66454U 25261A   26063.07197571 -.00000295  00000+0  00000+0 0  9990
2 66454   0.2081 279.6178 0153196 202.4155 336.1707  1.00755864  1725
SHIJIAN-28 (SJ-28)      
1 66549U 25277A   26065.24781922 -.00000369  00000+0  00000+0 0  9994
2 66549   4.8035 273.6846 0000191 157.7476 298.5082  1.00274196  1124
TJS-22                  
1 66990U 25290A   26065.15136029 -.00000013  00000+0  00000+0 0  9997
2 66990   1.7826 285.4255 0002890 359.1760   0.2044  1.00272187   993
TJS-23                  
1 67226U 25306A   26064.88548771  .00000008  00000+0  00000+0 0  9991
2 67226   5.8234 297.9988 0004530 107.7946 252.1229  1.00274916   851
